IRIDIUM 57 [-]          
1 25273U 98019B   24070.83846431  .00000461  00000+0  15478-3 0  9994
2 25273  86.4009 339.3224 0002149  86.5246 273.6196 14.35113390358315
IRIDIUM 63 [-]          
1 25286U 98021B   24070.82924774  .00000455  00000+0  15123-3 0  9997
2 25286  86.3930 276.2277 0002009  83.5487 276.5938 14.35630366357342
IRIDIUM 71 [-]          
1 25320U 98026B   24070.51244326  .00000569  00000+0  17400-3 0  9991
2 25320  86.3931 285.8333 0003031 132.1888 227.9569 14.40150336356836
IRIDIUM 73 [-]          
1 25344U 98032C   24070.92466865  .00000800  00000+0  19998-3 0  9995
2 25344  86.4389 243.2062 0002713  96.3987 263.7527 14.50335692363385
IRIDIUM 2 [-]           
1 25527U 98066A   24070.82410148  .00075482  00000+0  96769-3 0  9996
2 25527  85.5162   6.5304 0005322  63.9812 296.1999 15.58878263392472
